NORAD_CAT_ID,OBJECT_NAME,OBJECT_TYPE,EPOCH,MEAN_MOTION,ECCENTRICITY,INCLINATION,RA_OF_ASC_NODE,ARG_OF_PERICENTER,MEAN_ANOMALY,BSTAR,MEAN_MOTION_DOT,MEAN_MOTION_DDOT,TLE_LINE0,TLE_LINE1,TLE_LINE2,SEMIMAJOR_AXIS,PERIOD,APOGEE,PERIGEE,DECAYED
53139.0,STARLINK-4185,PAYLOAD,2023-03-03 08:36:50,15.08886272,0.0001214,53.2149,82.6757,110.6363,249.476,0.0017638,0.0002793,0.0,0 STARLINK-4185,1 53139U 22083H   23062.35891903  .00027930  00000-0  17638-2 0  9995,2 53139  53.2149  82.6757 0001214 110.6363 249.4760 15.08886272 35434,6917.739,95.435,540.444,538.764,0.0
53139.0,STARLINK-4185,PAYLOAD,2023-03-03 11:47:36,15.08895136,0.0001194,53.2148,82.0812,108.8643,251.2479,0.0019012,0.00030145,0.0,0 STARLINK-4185,1 53139U 22083H   23062.49139428  .00030145  00000-0  19012-2 0  9997,2 53139  53.2148  82.0812 0001194 108.8643 251.2479 15.08895136 34825,6917.712,95.434,540.403,538.751,0.0
53139.0,STARLINK-4185,PAYLOAD,2023-03-03 18:09:09,15.0887281,0.0001684,53.2149,80.8913,85.9572,274.1613,0.00093321,0.00014609,0.0,0 STARLINK-4185,1 53139U 22083H   23062.75635558  .00014609  00000-0  93321-3 0  9994,2 53139  53.2149  80.8913 0001684  85.9572 274.1613 15.08872810 35496,6917.78,95.435,540.81,538.48,0.0
53139.0,STARLINK-4185,PAYLOAD,2023-03-04 06:52:13,15.0886087,0.0001432,53.2154,78.5118,93.0817,267.0339,0.00040944,6.238e-05,0.0,0 STARLINK-4185,1 53139U 22083H   23063.28627172  .00006238  00000-0  40944-3 0  9998,2 53139  53.2154  78.5118 0001432  93.0817 267.0339 15.08860870 35574,6917.817,95.436,540.672,538.691,0.0
53139.0,STARLINK-4185,PAYLOAD,2023-03-04 10:02:59,15.08868098,0.000139,53.2154,77.9173,93.616,266.4991,0.00083055,0.00012965,0.0,0 STARLINK-4185,1 53139U 22083H   23063.41874967  .00012965  00000-0  83055-3 0  9993,2 53139  53.2154  77.9173 0001390  93.6160 266.4991 15.08868098 34967,6917.795,95.436,540.621,538.698,0.0
53139.0,STARLINK-4185,PAYLOAD,2023-03-04 17:59:56,15.08833017,8.83e-05,53.2156,76.4303,83.4214,276.6878,0.00021927,3.203e-05,0.0,0 STARLINK-4185,1 53139U 22083H   23063.74995518  .00003203  00000-0  21927-3 0  9990,2 53139  53.2156  76.4303 0000883  83.4214 276.6878 15.08833017 35647,6917.902,95.438,540.378,539.156,0.0
53139.0,STARLINK-4185,PAYLOAD,2023-03-05 08:18:24,15.0884558,0.0001287,53.2148,73.7544,77.0868,283.0268,0.0019322,0.00030602,0.0,0 STARLINK-4185,1 53139U 22083H   23064.34611987  .00030602  00000-0  19322-2 0  9990,2 53139  53.2148  73.7544 0001287  77.0868 283.0268 15.08845580 35102,6917.863,95.437,540.619,538.838,0.0
53139.0,STARLINK-4185,PAYLOAD,2023-03-06 04:58:25,15.08859603,0.0001372,53.2146,69.8888,75.2695,284.8449,0.0012526,0.00019714,0.0,0 STARLINK-4185,1 53139U 22083H   23065.20723775  .00019714  00000-0  12526-2 0  9995,2 53139  53.2146  69.8888 0001372  75.2695 284.8449 15.08859603 35864,6917.82,95.436,540.635,538.736,0.0
53139.0,STARLINK-4185,PAYLOAD,2023-03-06 17:41:30,15.08828926,0.0001667,53.216,67.5072,89.3032,270.8152,-0.00020299,-3.516e-05,0.0,0 STARLINK-4185,1 53139U 22083H   23065.73716082 -.00003516  00000-0 -20299-3 0  9998,2 53139  53.2160  67.5072 0001667  89.3032 270.8152 15.08828926 35947,6917.914,95.438,540.932,538.626,0.0
53139.0,STARLINK-4185,PAYLOAD,2023-03-07 06:24:35,15.08848481,9.61e-05,53.2154,65.1296,90.7809,269.3294,0.0020576,0.00032618,0.0,0 STARLINK-4185,1 53139U 22083H   23066.26707991  .00032618  00000-0  20576-2 0  9996,2 53139  53.2154  65.1296 0000961  90.7809 269.3294 15.08848481 36024,6917.854,95.437,540.384,539.055,0.0
53139.0,STARLINK-4185,PAYLOAD,2023-03-07 11:10:44,15.08860605,0.0001003,53.2153,64.2365,94.7877,265.3229,0.0025106,0.00039917,0.0,0 STARLINK-4185,1 53139U 22083H   23066.46579823  .00039917  00000-0  25106-2 0  9992,2 53139  53.2153  64.2365 0001003  94.7877 265.3229 15.08860605 35426,6917.817,95.436,540.376,538.989,0.0
53139.0,STARLINK-4185,PAYLOAD,2023-03-08 04:39:59,15.08852221,0.0001078,53.2157,60.9655,106.3855,253.7255,0.0016809,0.00026574,0.0,0 STARLINK-4185,1 53139U 22083H   23067.19444182  .00026574  00000-0  16809-2 0  9997,2 53139  53.2157  60.9655 0001078 106.3855 253.7255 15.08852221 36160,6917.843,95.437,540.454,538.962,0.0
53139.0,STARLINK-4185,PAYLOAD,2023-03-08 11:01:32,15.08868519,0.0001117,53.2163,59.7757,91.3809,268.7311,0.0021971,0.00034879,0.0,0 STARLINK-4185,1 53139U 22083H   23067.45939978  .00034879  00000-0  21971-2 0  9991,2 53139  53.2163  59.7757 0001117  91.3809 268.7311 15.08868519 35572,6917.793,95.436,540.431,538.886,0.0
53139.0,STARLINK-4185,PAYLOAD,2023-03-08 23:44:37,15.08854772,0.0001239,53.2162,57.3961,112.44,247.6724,0.0031157,0.00049668,0.0,0 STARLINK-4185,1 53139U 22083H   23067.98932539  .00049668  00000-0  31157-2 0  9994,2 53139  53.2162  57.3961 0001239 112.4400 247.6724 15.08854772 36288,6917.835,95.437,540.557,538.843,0.0
53139.0,STARLINK-4185,PAYLOAD,2023-03-09 22:00:01,15.08859821,0.0002405,53.2169,53.2338,99.0633,261.0631,0.0018629,0.00029501,0.0,0 STARLINK-4185,1 53139U 22083H   23068.91668275  .00029501  00000-0  18629-2 0  9994,2 53139  53.2169  53.2338 0002405  99.0633 261.0631 15.08859821 35794,6917.82,95.436,541.349,538.021,0.0
53139.0,STARLINK-4185,PAYLOAD,2023-03-10 05:56:56,15.08864655,0.0001173,53.2169,51.7469,91.5409,268.5717,0.0029052,0.00046283,0.0,0 STARLINK-4185,1 53139U 22083H   23069.24788079  .00046283  00000-0  29052-2 0  9994,2 53139  53.2169  51.7469 0001173  91.5409 268.5717 15.08864655 36475,6917.805,95.436,540.481,538.859,0.0
53139.0,STARLINK-4185,PAYLOAD,2023-03-10 15:29:15,15.08852378,0.0001267,53.2169,49.9633,87.9559,272.1579,0.0012592,0.00019816,0.0,0 STARLINK-4185,1 53139U 22083H   23069.64532340  .00019816  00000-0  12592-2 0  9999,2 53139  53.2169  49.9633 0001267  87.9559 272.1579 15.08852378 36539,6917.843,95.437,540.584,538.831,0.0
53139.0,STARLINK-4185,PAYLOAD,2023-03-11 02:36:58,15.08842549,0.0001016,53.2167,47.8817,104.3418,255.7687,0.001654,0.00026135,0.0,0 STARLINK-4185,1 53139U 22083H   23070.10900670  .00026135  00000-0  16540-2 0  9996,2 53139  53.2167  47.8817 0001016 104.3418 255.7687 15.08842549 36602,6917.873,95.437,540.44,539.035,0.0
53139.0,STARLINK-4185,PAYLOAD,2023-03-11 10:33:53,15.08867348,0.0001264,53.2169,46.3955,105.2478,254.8654,0.0025413,0.00040419,0.0,0 STARLINK-4185,1 53139U 22083H   23070.44020469  .00040419  00000-0  25413-2 0  9992,2 53139  53.2169  46.3955 0001264 105.2478 254.8654 15.08867348 36026,6917.797,95.436,540.536,538.787,0.0
53139.0,STARLINK-4185,PAYLOAD,2023-03-12 07:13:54,15.0886735,9.62e-05,53.2169,42.5292,183.9331,176.1654,0.0023995,0.00038136,0.0,0 STARLINK-4185,1 53139U 22083H   23071.30132158  .00038136  00000-0  23995-2 0  9993,2 53139  53.2169  42.5292 0000962 183.9331 176.1654 15.08867350 36785,6917.797,95.436,540.327,538.996,0.0
53139.0,STARLINK-4185,PAYLOAD,2023-03-12 21:32:23,15.08857334,0.0001506,53.2171,39.8539,102.4042,257.7118,0.0029376,0.00046797,0.0,0 STARLINK-4185,1 53139U 22083H   23071.89748902  .00046797  00000-0  29376-2 0  9998,2 53139  53.2171  39.8539 0001506 102.4042 257.7118 15.08857334 36873,6917.827,95.436,540.734,538.651,0.0
53139.0,STARLINK-4185,PAYLOAD,2023-03-13 07:04:41,15.08870848,0.0001343,53.2168,38.0694,94.5271,265.5874,0.0011921,0.00018751,0.0,0 STARLINK-4185,1 53139U 22083H   23072.29492054  .00018751  00000-0  11921-2 0  9993,2 53139  53.2168  38.0694 0001343  94.5271 265.5874 15.08870848 36934,6917.786,95.436,540.58,538.722,0.0
53139.0,STARLINK-4185,PAYLOAD,2023-03-13 21:23:09,15.08831053,0.0001106,53.2169,35.3949,92.9909,267.121,0.00095983,0.00015017,0.0,0 STARLINK-4185,1 53139U 22083H   23072.89108668  .00015017  00000-0  95983-3 0  9997,2 53139  53.2169  35.3949 0001106  92.9909 267.1210 15.08831053 37023,6917.908,95.438,540.538,539.008,0.0
53139.0,STARLINK-4185,PAYLOAD,2023-03-14 03:44:42,15.08838108,0.0001351,53.2168,34.2047,103.3239,256.7904,3.351e-05,2.45e-06,0.0,0 STARLINK-4185,1 53139U 22083H   23073.15604647  .00000245  00000-0  33510-4 0  9991,2 53139  53.2168  34.2047 0001351 103.3239 256.7904 15.08838108 36430,6917.886,95.438,540.686,538.817,0.0
53139.0,STARLINK-4185,PAYLOAD,2023-03-14 14:52:24,15.08844251,0.0001524,53.2175,32.1221,119.7448,240.3696,0.00041654,6.348e-05,0.0,0 STARLINK-4185,1 53139U 22083H   23073.61972626  .00006348  00000-0  41654-3 0  9994,2 53139  53.2175  32.1221 0001524 119.7448 240.3696 15.08844251 36505,6917.867,95.437,540.787,538.678,0.0
53139.0,STARLINK-4185,PAYLOAD,2023-03-15 03:35:28,15.0887197,0.0001627,53.2173,29.7428,122.8693,237.2456,0.00132,0.00020801,0.0,0 STARLINK-4185,1 53139U 22083H   23074.14963962  .00020801  00000-0  13200-2 0  9991,2 53139  53.2173  29.7428 0001627 122.8693 237.2456 15.08871970 37211,6917.783,95.436,540.773,538.522,0.0
53139.0,STARLINK-4185,PAYLOAD,2023-03-15 21:04:43,15.08851072,0.0001497,53.2175,26.4724,112.2956,247.8195,0.00042393,6.467e-05,0.0,0 STARLINK-4185,1 53139U 22083H   23074.87828223  .00006467  00000-0  42393-3 0  9999,2 53139  53.2175  26.4724 0001497 112.2956 247.8195 15.08851072 36695,6917.847,95.437,540.747,538.676,0.0
53139.0,STARLINK-4185,PAYLOAD,2023-03-16 03:26:16,15.08814262,9.71e-05,53.2177,25.2834,103.8826,256.2274,0.0010342,0.00016198,0.0,0 STARLINK-4185,1 53139U 22083H   23075.14324903  .00016198  00000-0  10342-2 0  9996,2 53139  53.2177  25.2834 0000971 103.8826 256.2274 15.08814262 37361,6917.959,95.439,540.496,539.152,0.0
53139.0,STARLINK-4185,PAYLOAD,2023-03-16 20:55:31,15.0883721,0.000105,53.2173,22.0117,102.9317,257.1792,0.0011114,0.00017443,0.0,0 STARLINK-4185,1 53139U 22083H   23075.87189542  .00017443  00000-0  11114-2 0  9996,2 53139  53.2173  22.0117 0001050 102.9317 257.1792 15.08837210 36845,6917.889,95.438,540.48,539.028,0.0
53139.0,STARLINK-4185,PAYLOAD,2023-03-17 12:49:22,15.08852502,0.0001074,53.2169,19.0419,111.8013,248.3093,0.0005955,9.205e-05,0.0,0 STARLINK-4185,1 53139U 22083H   23076.53429117  .00009205  00000-0  59550-3 0  9999,2 53139  53.2169  19.0419 0001074 111.8013 248.3093 15.08852502 37577,6917.842,95.437,540.45,538.964,0.0
